start=new Date('2021-10-10T00:00:00.000Z').valueOf();
sats=[{"CENTER_NAME":"EARTH","MEAN_ANOMALY":"305.0600","MEAN_MOTION_DDOT":"0.0000000000000","ARG_OF_PERICENTER":"55.0584","REF_FRAME":"TEME","NORAD_CAT_ID":"48554","TLE_LINE2":"2 48554  53.0586 169.5125 0002084  55.0584 305.0600 15.06394068 22195","MEAN_MOTION_DOT":"-0.00001913","CLASSIFICATION_TYPE":"U","PERIAPSIS":"545.788","REV_AT_EPOCH":"2219","FILE":"3153808","LAUNCH_DATE":"2021-05-15","OBJECT_NAME":"STARLINK-2139","ECCENTRICITY":"0.00020840","DECAY_DATE":null,"COUNTRY_CODE":"US","MEAN_ELEMENT_THEORY":"SGP4","BSTAR":"-0.00010955000000","TLE_LINE1":"1 48554U 21041B   21282.38986847 -.00001913  00000-0 -10955-3 0  9991","SEMIMAJOR_AXIS":"6925.367","GP_ID":"186730350","RCS_SIZE":"LARGE","OBJECT_ID":"2021-041B","INCLINATION":"53.0586","SITE":"AFETR","APOAPSIS":"548.675","PERIOD":"95.593","MEAN_MOTION":"15.06394068","EPOCH":"2021-10-09T09:21:24.635808","TIME_SYSTEM":"UTC","RA_OF_ASC_NODE":"169.5125","ELEMENT_SET_NO":"999","OBJECT_TYPE":"PAYLOAD","EPHEMERIS_TYPE":"0"},{"OBJECT_NAME":"STARLINK-2145","ECCENTRICITY":"0.00018180","DECAY_DATE":null,"LAUNCH_DATE":"2021-05-15","FILE":"3153808","PERIAPSIS":"545.994","REV_AT_EPOCH":"2209","CLASSIFICATION_TYPE":"U","NORAD_CAT_ID":"48555","TLE_LINE2":"2 48555  53.0553 178.1901 0001818  65.6810 294.4368 15.06387010 22091","REF_FRAME":"TEME","MEAN_MOTION_DOT":"-0.00001007","ARG_OF_PERICENTER":"65.6810","MEAN_ANOMALY":"294.4368","CENTER_NAME":"EARTH","MEAN_MOTION_DDOT":"0.0000000000000","ELEMENT_SET_NO":"999","OBJECT_TYPE":"PAYLOAD","EPHEMERIS_TYPE":"0","RA_OF_ASC_NODE":"178.1901","EPOCH":"2021-10-09T16:24:42.397056","TIME_SYSTEM":"UTC","MEAN_MOTION":"15.06387010","PERIOD":"95.593","APOAPSIS":"548.512","GP_ID":"186729698","SITE":"AFETR","OBJECT_ID":"2021-041C","RCS_SIZE":"LARGE","INCLINATION":"53.0553","SEMIMAJOR_AXIS":"6925.388","TLE_LINE1":"1 48555U 21041C   21282.68382404 -.00001007  00000-0 -48738-4 0  9999","BSTAR":"-0.00004873800000","MEAN_ELEMENT_THEORY":"SGP4","COUNTRY_CODE":"US"},{"TIME_SYSTEM":"UTC","EPOCH":"2021-10-09T09:46:35.841792","PERIOD":"95.592","MEAN_MOTION":"15.06405585","OBJECT_TYPE":"PAYLOAD","EPHEMERIS_TYPE":"0","ELEMENT_SET_NO":"999","RA_OF_ASC_NODE":"179.4201","SEMIMAJOR_AXIS":"6925.331","BSTAR":"-0.00007275900000","TLE_LINE1":"1 48556U 21041D   21282.40735928 -.00001365  00000-0 -72759-4 0  9990","MEAN_ELEMENT_THEORY":"SGP4","COUNTRY_CODE":"US","APOAPSIS":"548.555","SITE":"AFETR","OBJECT_ID":"2021-041D","RCS_SIZE":"LARGE","INCLINATION":"53.0544","GP_ID":"186729907","FILE":"3153808","REV_AT_EPOCH":"2205","PERIAPSIS":"545.838","DECAY_DATE":null,"OBJECT_NAME":"STARLINK-2151","ECCENTRICITY":"0.00019620","LAUNCH_DATE":"2021-05-15","ARG_OF_PERICENTER":"66.1557","MEAN_MOTION_DDOT":"0.0000000000000","MEAN_ANOMALY":"293.9638","CENTER_NAME":"EARTH","CLASSIFICATION_TYPE":"U","MEAN_MOTION_DOT":"-0.00001365","NORAD_CAT_ID":"48556","TLE_LINE2":"2 48556  53.0544 179.4201 0001962  66.1557 293.9638 15.06405585 22051","REF_FRAME":"TEME"},{"FILE":"3153808","PERIAPSIS":"546.118","REV_AT_EPOCH":"2219","OBJECT_NAME":"STARLINK-2155","ECCENTRICITY":"0.00015880","DECAY_DATE":null,"LAUNCH_DATE":"2021-05-15","ARG_OF_PERICENTER":"73.8164","MEAN_ANOMALY":"286.3000","CENTER_NAME":"EARTH","MEAN_MOTION_DDOT":"0.0000000000000","CLASSIFICATION_TYPE":"U","TLE_LINE2":"2 48557  53.0561 169.4192 0001588  73.8164 286.3000 15.06398684 22197","NORAD_CAT_ID":"48557","REF_FRAME":"TEME","MEAN_MOTION_DOT":"-0.00001672","EPOCH":"2021-10-09T09:53:14.987328","TIME_SYSTEM":"UTC","MEAN_MOTION":"15.06398684","PERIOD":"95.592","ELEMENT_SET_NO":"999","EPHEMERIS_TYPE":"0","OBJECT_TYPE":"PAYLOAD","RA_OF_ASC_NODE":"169.4192","SEMIMAJOR_AXIS":"6925.353","BSTAR":"-0.00009334700000","TLE_LINE1":"1 48557U 21041E   21282.41197902 -.00001672  00000-0 -93347-4 0  9993","MEAN_ELEMENT_THEORY":"SGP4","COUNTRY_CODE":"US","APOAPSIS":"548.317","GP_ID":"186730144","SITE":"AFETR","RCS_SIZE":"LARGE","INCLINATION":"53.0561","OBJECT_ID":"2021-041E"},{"PERIAPSIS":"546.068","REV_AT_EPOCH":"2133","FILE":"3153808","LAUNCH_DATE":"2021-05-15","ECCENTRICITY":"0.00016890","OBJECT_NAME":"STARLINK-2166","DECAY_DATE":null,"CENTER_NAME":"EARTH","MEAN_ANOMALY":"289.1792","MEAN_MOTION_DDOT":"0.0000000000000","ARG_OF_PERICENTER":"70.9380","REF_FRAME":"TEME","TLE_LINE2":"2 48558  53.0560 169.4324 0001689  70.9380 289.1792 15.06392124 21331","NORAD_CAT_ID":"48558","MEAN_MOTION_DOT":"-0.00001209","CLASSIFICATION_TYPE":"U","PERIOD":"95.593","MEAN_MOTION":"15.06392124","EPOCH":"2021-10-09T09:47:57.162336","TIME_SYSTEM":"UTC","RA_OF_ASC_NODE":"169.4324","ELEMENT_SET_NO":"999","OBJECT_TYPE":"PAYLOAD","EPHEMERIS_TYPE":"0","COUNTRY_CODE":"US","MEAN_ELEMENT_THEORY":"SGP4","BSTAR":"-0.00006225500000","TLE_LINE1":"1 48558U 21041F   21282.40830049 -.00001209  00000-0 -62255-4 0  9999","SEMIMAJOR_AXIS":"6925.373","GP_ID":"186730438","RCS_SIZE":"LARGE","INCLINATION":"53.0560","OBJECT_ID":"2021-041F","SITE":"AFETR","APOAPSIS":"548.407"},{"APOAPSIS":"548.511","RCS_SIZE":"LARGE","INCLINATION":"53.0480","OBJECT_ID":"2021-041G","SITE":"AFETR","GP_ID":"186730038","TLE_LINE1":"1 48559U 21041G   21282.64325660 -.00001796  00000-0 -10167-3 0  9999","BSTAR":"-0.00010167000000","SEMIMAJOR_AXIS":"6925.364","COUNTRY_CODE":"US","MEAN_ELEMENT_THEORY":"SGP4","OBJECT_TYPE":"PAYLOAD","EPHEMERIS_TYPE":"0","ELEMENT_SET_NO":"999","RA_OF_ASC_NODE":"168.3903","TIME_SYSTEM":"UTC","EPOCH":"2021-10-09T15:26:17.370240","MEAN_MOTION":"15.06395054","PERIOD":"95.592","CLASSIFICATION_TYPE":"U","MEAN_MOTION_DOT":"-0.00001796","REF_FRAME":"TEME","TLE_LINE2":"2 48559  53.0480 168.3903 0001851  68.0830 292.0355 15.06395054 22225","NORAD_CAT_ID":"48559","ARG_OF_PERICENTER":"68.0830","MEAN_MOTION_DDOT":"0.0000000000000","MEAN_ANOMALY":"292.0355","CENTER_NAME":"EARTH","DECAY_DATE":null,"ECCENTRICITY":"0.00018510","OBJECT_NAME":"STARLINK-2167","LAUNCH_DATE":"2021-05-15","FILE":"3153808","REV_AT_EPOCH":"2222","PERIAPSIS":"545.947"},{"MEAN_MOTION":"15.06387192","PERIOD":"95.593","TIME_SYSTEM":"UTC","EPOCH":"2021-10-09T17:03:11.548512","RA_OF_ASC_NODE":"168.0880","EPHEMERIS_TYPE":"0","OBJECT_TYPE":"PAYLOAD","ELEMENT_SET_NO":"999","MEAN_ELEMENT_THEORY":"SGP4","COUNTRY_CODE":"US","SEMIMAJOR_AXIS":"6925.388","TLE_LINE1":"1 48560U 21041H   21282.71055033 -.00002385  00000-0 -14132-3 0  9994","BSTAR":"-0.00014132000000","SITE":"AFETR","RCS_SIZE":"LARGE","OBJECT_ID":"2021-041H","INCLINATION":"53.0491","GP_ID":"186730246","APOAPSIS":"548.484","REV_AT_EPOCH":"2314","PERIAPSIS":"546.021","FILE":"3153808","LAUNCH_DATE":"2021-05-15","DECAY_DATE":null,"ECCENTRICITY":"0.00017780","OBJECT_NAME":"STARLINK-2173","MEAN_MOTION_DDOT":"0.0000000000000","CENTER_NAME":"EARTH","MEAN_ANOMALY":"281.6669","ARG_OF_PERICENTER":"78.4519","MEAN_MOTION_DOT":"-0.00002385","TLE_LINE2":"2 48560  53.0491 168.0880 0001778  78.4519 281.6669 15.06387192 23145","NORAD_CAT_ID":"48560","REF_FRAME":"TEME","CLASSIFICATION_TYPE":"U"},{"REF_FRAME":"TEME","NORAD_CAT_ID":"48561","TLE_LINE2":"2 48561  53.0541 141.2603 0002771  19.0241 355.2197 15.42173479  3632","MEAN_MOTION_DOT":"0.00006868","CLASSIFICATION_TYPE":"U","MEAN_ANOMALY":"355.2197","CENTER_NAME":"EARTH","MEAN_MOTION_DDOT":"0.0000000000000","ARG_OF_PERICENTER":"19.0241","LAUNCH_DATE":"2021-05-15","OBJECT_NAME":"STARLINK-2186","ECCENTRICITY":"0.00027710","DECAY_DATE":null,"PERIAPSIS":"437.809","REV_AT_EPOCH":"363","FILE":"3153808","GP_ID":"186729805","OBJECT_ID":"2021-041J","RCS_SIZE":"LARGE","INCLINATION":"53.0541","SITE":"AFETR","APOAPSIS":"441.587","COUNTRY_CODE":"US","MEAN_ELEMENT_THEORY":"SGP4","TLE_LINE1":"1 48561U 21041J   21283.00001157  .00006868  00000-0  16706-3 0  9993","BSTAR":"0.00016706000000","SEMIMAJOR_AXIS":"6817.833","RA_OF_ASC_NODE":"141.2603","ELEMENT_SET_NO":"999","EPHEMERIS_TYPE":"0","OBJECT_TYPE":"PAYLOAD","MEAN_MOTION":"15.42173479","PERIOD":"93.375","EPOCH":"2021-10-10T00:00:00.999648","TIME_SYSTEM":"UTC"},{"INCLINATION":"53.0590","RCS_SIZE":"LARGE","OBJECT_ID":"2021-041K","SITE":"AFETR","GP_ID":"186730351","APOAPSIS":"548.375","COUNTRY_CODE":"US","MEAN_ELEMENT_THEORY":"SGP4","TLE_LINE1":"1 48562U 21041K   21282.38616682  .00000431  00000-0  47842-4 0  9995","BSTAR":"0.00004784200000","SEMIMAJOR_AXIS":"6925.318","RA_OF_ASC_NODE":"169.5240","EPHEMERIS_TYPE":"0","OBJECT_TYPE":"PAYLOAD","ELEMENT_SET_NO":"999","MEAN_MOTION":"15.06410003","PERIOD":"95.592","TIME_SYSTEM":"UTC","EPOCH":"2021-10-09T09:16:04.813248","MEAN_MOTION_DOT":"0.00000431","REF_FRAME":"TEME","TLE_LINE2":"2 48562  53.0590 169.5240 0001722  61.2352 298.8810 15.06410003 22197","NORAD_CAT_ID":"48562","CLASSIFICATION_TYPE":"U","MEAN_MOTION_DDOT":"0.0000000000000","CENTER_NAME":"EARTH","MEAN_ANOMALY":"298.8810","ARG_OF_PERICENTER":"61.2352","LAUNCH_DATE":"2021-05-15","DECAY_DATE":null,"ECCENTRICITY":"0.00017220","OBJECT_NAME":"STARLINK-2187","REV_AT_EPOCH":"2219","PERIAPSIS":"545.990","FILE":"3153808"},{"RA_OF_ASC_NODE":"169.4522","ELEMENT_SET_NO":"999","OBJECT_TYPE":"PAYLOAD","EPHEMERIS_TYPE":"0","MEAN_MOTION":"15.06385302","PERIOD":"95.593","EPOCH":"2021-10-09T09:42:38.744640","TIME_SYSTEM":"UTC","GP_ID":"186729699","SITE":"AFETR","RCS_SIZE":"LARGE","INCLINATION":"53.0563","OBJECT_ID":"2021-041L","APOAPSIS":"548.582","MEAN_ELEMENT_THEORY":"SGP4","COUNTRY_CODE":"US","SEMIMAJOR_AXIS":"6925.394","TLE_LINE1":"1 48563U 21041L   21282.40461510 -.00001849  00000-0 -10527-3 0  9992","BSTAR":"-0.00010527000000","LAUNCH_DATE":"2021-05-15","ECCENTRICITY":"0.00019110","OBJECT_NAME":"STARLINK-2188","DECAY_DATE":null,"PERIAPSIS":"545.935","REV_AT_EPOCH":"2219","FILE":"3153808","TLE_LINE2":"2 48563  53.0563 169.4522 0001911  58.9990 301.1187 15.06385302 22199","NORAD_CAT_ID":"48563","REF_FRAME":"TEME","MEAN_MOTION_DOT":"-0.00001849","CLASSIFICATION_TYPE":"U","CENTER_NAME":"EARTH","MEAN_ANOMALY":"301.1187","MEAN_MOTION_DDOT":"0.0000000000000","ARG_OF_PERICENTER":"58.9990"}];
